{"fetched_at": "2026-05-06T14:56:24.483018+00:00", "line1": "1 50322U 21129B   26124.63326250  .00000059  00000+0  00000+0 0  9991", "line2": "2 50322   3.5628  80.4921 0001350  28.4370  36.5207  1.00476506 16060"}
{"fetched_at": "2026-05-08T01:13:34.307809+00:00", "line1": "1 50322U 21129B   26127.62824198  .00000041  00000+0  00000+0 0  9998", "line2": "2 50322   3.5699  80.4516 0001390  32.2713  36.0841  1.00477397 16097"}
{"fetched_at": "2026-05-20T19:18:52.807937+00:00", "line1": "1 50322U 21129B   26139.53514794 -.00000053  00000+0  00000+0 0  9993", "line2": "2 50322   3.6021  80.2901 0001998  52.4057   3.3769  1.00490815 16212"}
{"fetched_at": "2026-05-22T01:06:16.934706+00:00", "line1": "1 50322U 21129B   26140.65712641 -.00000066  00000+0  00000+0 0  9993", "line2": "2 50322   3.6053  80.2749 0002022  51.3199  50.3818  1.00491076 16229"}
{"fetched_at": "2026-05-25T17:27:17.814042+00:00", "line1": "1 50322U 21129B   26144.67083538 -.00000094  00000+0  00000+0 0  9996", "line2": "2 50322   3.6161  80.2270 0002247  47.7666  66.0515  1.00492065 16266"}
